{
  "type": "FeatureCollection",
  "features": [
    {
      "type": "Feature",
      "properties": {
        "norad_id": 28890,
        "name": "BEIJING 1",
        "group": "dmc",
        "lat": 45.414754567029306,
        "lon": -42.617062319385774,
        "alt_km": 669.233061341989,
        "timestamp": "2025-12-27T08:36:18.032632+00:00",
        "meta_object_name": "BEIJING 1",
        "meta_object_id": "2005-043A",
        "meta_epoch": "2025-12-27T04:42:52.168896",
        "meta_mean_motion": 14.63378777,
        "meta_eccentricity": 0.0015878,
        "meta_inclination": 98.2663,
        "meta_ra_of_asc_node": 128.7384,
        "meta_arg_of_pericenter": 98.8776,
        "meta_mean_anomaly": 261.4224,
        "meta_ephemeris_type": 0,
        "meta_classification_type": "U",
        "meta_norad_cat_id": 28890,
        "meta_element_set_no": 999,
        "meta_rev_at_epoch": 7549,
        "meta_bstar": 7.3159e-05,
        "meta_mean_motion_dot": 3.3e-06,
        "meta_mean_motion_ddot": 0,
        "tle_line1": "1 28890U 05043A   25361.19643714  .00000330  00000+0  73159-4 0  9995",
        "tle_line2": "2 28890  98.2663 128.7384 0015878  98.8776 261.4224 14.63378777 75499"
      },
      "geometry": {
        "type": "Point",
        "coordinates": [
          -42.617062319385774,
          45.414754567029306
        ]
      }
    },
    {
      "type": "Feature",
      "properties": {
        "norad_id": 33320,
        "name": "HUANJING 1A (HJ-1A)",
        "group": "dmc",
        "lat": 45.47087257455414,
        "lon": 176.90645326140728,
        "alt_km": 625.6352180753838,
        "timestamp": "2025-12-27T08:36:18.032657+00:00",
        "meta_object_name": "HUANJING 1A (HJ-1A)",
        "meta_object_id": "2008-041A",
        "meta_epoch": "2025-12-27T04:45:57.437280",
        "meta_mean_motion": 14.83441358,
        "meta_eccentricity": 0.0018997,
        "meta_inclination": 97.6555,
        "meta_ra_of_asc_node": 348.8942,
        "meta_arg_of_pericenter": 348.1535,
        "meta_mean_anomaly": 11.9229,
        "meta_ephemeris_type": 0,
        "meta_classification_type": "U",
        "meta_norad_cat_id": 33320,
        "meta_element_set_no": 999,
        "meta_rev_at_epoch": 93290,
        "meta_bstar": 0.00029346,
        "meta_mean_motion_dot": 2.366e-05,
        "meta_mean_motion_ddot": 0,
        "tle_line1": "1 33320U 08041A   25361.19858145  .00002366  00000+0  29346-3 0  9995",
        "tle_line2": "2 33320  97.6555 348.8942 0018997 348.1535  11.9229 14.83441358932909"
      },
      "geometry": {
        "type": "Point",
        "coordinates": [
          176.90645326140728,
          45.47087257455414
        ]
      }
    },
    {
      "type": "Feature",
      "properties": {
        "norad_id": 33321,
        "name": "HUANJING 1B (HJ-1B)",
        "group": "dmc",
        "lat": -35.54247397929408,
        "lon": -1.7901973264942228,
        "alt_km": 615.487083740577,
        "timestamp": "2025-12-27T08:36:18.032671+00:00",
        "meta_object_name": "HUANJING 1B (HJ-1B)",
        "meta_object_id": "2008-041B",
        "meta_epoch": "2025-12-27T05:31:36.687936",
        "meta_mean_motion": 14.82861886,
        "meta_eccentricity": 0.0037639,
        "meta_inclination": 97.6413,
        "meta_ra_of_asc_node": 352.5834,
        "meta_arg_of_pericenter": 29.8017,
        "meta_mean_anomaly": 330.533,
        "meta_ephemeris_type": 0,
        "meta_classification_type": "U",
        "meta_norad_cat_id": 33321,
        "meta_element_set_no": 999,
        "meta_rev_at_epoch": 93292,
        "meta_bstar": 0.00023484,
        "meta_mean_motion_dot": 1.874e-05,
        "meta_mean_motion_ddot": 0,
        "tle_line1": "1 33321U 08041B   25361.23028574  .00001874  00000+0  23484-3 0  9996",
        "tle_line2": "2 33321  97.6413 352.5834 0037639  29.8017 330.5330 14.82861886932923"
      },
      "geometry": {
        "type": "Point",
        "coordinates": [
          -1.7901973264942228,
          -35.54247397929408
        ]
      }
    },
    {
      "type": "Feature",
      "properties": {
        "norad_id": 33446,
        "name": "YAOGAN-4",
        "group": "dmc",
        "lat": -48.724596932869204,
        "lon": 102.19029913100093,
        "alt_km": 620.8743611465698,
        "timestamp": "2025-12-27T08:36:18.032684+00:00",
        "meta_object_name": "YAOGAN-4",
        "meta_object_id": "2008-061A",
        "meta_epoch": "2025-12-27T01:05:39.962688",
        "meta_mean_motion": 14.82725311,
        "meta_eccentricity": 0.001296,
        "meta_inclination": 97.9199,
        "meta_ra_of_asc_node": 291.0058,
        "meta_arg_of_pericenter": 272.4359,
        "meta_mean_anomaly": 87.537,
        "meta_ephemeris_type": 0,
        "meta_classification_type": "U",
        "meta_norad_cat_id": 33446,
        "meta_element_set_no": 999,
        "meta_rev_at_epoch": 92015,
        "meta_bstar": 0.00021581,
        "meta_mean_motion_dot": 1.691e-05,
        "meta_mean_motion_ddot": 0,
        "tle_line1": "1 33446U 08061A   25361.04560142  .00001691  00000+0  21581-3 0  9990",
        "tle_line2": "2 33446  97.9199 291.0058 0012960 272.4359  87.5370 14.82725311920152"
      },
      "geometry": {
        "type": "Point",
        "coordinates": [
          102.19029913100093,
          -48.724596932869204
        ]
      }
    },
    {
      "type": "Feature",
      "properties": {
        "norad_id": 35681,
        "name": "DEIMOS-1",
        "group": "dmc",
        "lat": -47.35663229547909,
        "lon": 169.7478616511255,
        "alt_km": 652.4927440434249,
        "timestamp": "2025-12-27T08:36:18.032695+00:00",
        "meta_object_name": "DEIMOS-1",
        "meta_object_id": "2009-041A",
        "meta_epoch": "2025-12-27T03:56:14.999136",
        "meta_mean_motion": 14.74975927,
        "meta_eccentricity": 0.0002397,
        "meta_inclination": 97.7159,
        "meta_ra_of_asc_node": 161.0968,
        "meta_arg_of_pericenter": 57.7741,
        "meta_mean_anomaly": 302.3701,
        "meta_ephemeris_type": 0,
        "meta_classification_type": "U",
        "meta_norad_cat_id": 35681,
        "meta_element_set_no": 999,
        "meta_rev_at_epoch": 88152,
        "meta_bstar": 0.00018773,
        "meta_mean_motion_dot": 1.215e-05,
        "meta_mean_motion_ddot": 0,
        "tle_line1": "1 35681U 09041A   25361.16406249  .00001215  00000+0  18773-3 0  9993",
        "tle_line2": "2 35681  97.7159 161.0968 0002397  57.7741 302.3701 14.74975927881521"
      },
      "geometry": {
        "type": "Point",
        "coordinates": [
          169.7478616511255,
          -47.35663229547909
        ]
      }
    },
    {
      "type": "Feature",
      "properties": {
        "norad_id": 35683,
        "name": "UK-DMC 2",
        "group": "dmc",
        "lat": 2.6588633466992295,
        "lon": 135.48201993237817,
        "alt_km": 645.7205843304964,
        "timestamp": "2025-12-27T08:36:18.032706+00:00",
        "meta_object_name": "UK-DMC 2",
        "meta_object_id": "2009-041C",
        "meta_epoch": "2025-12-27T05:20:17.185632",
        "meta_mean_motion": 14.75653835,
        "meta_eccentricity": 0.0001605,
        "meta_inclination": 97.8573,
        "meta_ra_of_asc_node": 135.7172,
        "meta_arg_of_pericenter": 92.3547,
        "meta_mean_anomaly": 267.7846,
        "meta_ephemeris_type": 0,
        "meta_classification_type": "U",
        "meta_norad_cat_id": 35683,
        "meta_element_set_no": 999,
        "meta_rev_at_epoch": 88120,
        "meta_bstar": 0.0002235,
        "meta_mean_motion_dot": 1.477e-05,
        "meta_mean_motion_ddot": 0,
        "tle_line1": "1 35683U 09041C   25361.22242113  .00001477  00000+0  22350-3 0  9996",
        "tle_line2": "2 35683  97.8573 135.7172 0001605  92.3547 267.7846 14.75653835881200"
      },
      "geometry": {
        "type": "Point",
        "coordinates": [
          135.48201993237817,
          2.6588633466992295
        ]
      }
    },
    {
      "type": "Feature",
      "properties": {
        "norad_id": 40715,
        "name": "DMC3-FM1",
        "group": "dmc",
        "lat": -27.196429857142682,
        "lon": 44.04820209099658,
        "alt_km": 616.1497583951596,
        "timestamp": "2025-12-27T08:36:18.032717+00:00",
        "meta_object_name": "DMC3-FM1",
        "meta_object_id": "2015-032A",
        "meta_epoch": "2025-12-27T04:26:26.655072",
        "meta_mean_motion": 14.85464677,
        "meta_eccentricity": 0.0004081,
        "meta_inclination": 97.6677,
        "meta_ra_of_asc_node": 227.8507,
        "meta_arg_of_pericenter": 259.4522,
        "meta_mean_anomaly": 100.6234,
        "meta_ephemeris_type": 0,
        "meta_classification_type": "U",
        "meta_norad_cat_id": 40715,
        "meta_element_set_no": 999,
        "meta_rev_at_epoch": 56437,
        "meta_bstar": 0.00012668,
        "meta_mean_motion_dot": 1.041e-05,
        "meta_mean_motion_ddot": 0,
        "tle_line1": "1 40715U 15032A   25361.18503073  .00001041  00000+0  12668-3 0  9993",
        "tle_line2": "2 40715  97.6677 227.8507 0004081 259.4522 100.6234 14.85464677564377"
      },
      "geometry": {
        "type": "Point",
        "coordinates": [
          44.04820209099658,
          -27.196429857142682
        ]
      }
    },
    {
      "type": "Feature",
      "properties": {
        "norad_id": 40716,
        "name": "DMC3-FM2",
        "group": "dmc",
        "lat": 81.84889626968418,
        "lon": 159.1946466720412,
        "alt_km": 607.8074390088832,
        "timestamp": "2025-12-27T08:36:18.032728+00:00",
        "meta_object_name": "DMC3-FM2",
        "meta_object_id": "2015-032B",
        "meta_epoch": "2025-12-27T04:58:48.584928",
        "meta_mean_motion": 14.85469743,
        "meta_eccentricity": 0.0004505,
        "meta_inclination": 97.6737,
        "meta_ra_of_asc_node": 229.3267,
        "meta_arg_of_pericenter": 267.4978,
        "meta_mean_anomaly": 92.5722,
        "meta_ephemeris_type": 0,
        "meta_classification_type": "U",
        "meta_norad_cat_id": 40716,
        "meta_element_set_no": 999,
        "meta_rev_at_epoch": 56437,
        "meta_bstar": 0.00019743,
        "meta_mean_motion_dot": 1.652e-05,
        "meta_mean_motion_ddot": 0,
        "tle_line1": "1 40716U 15032B   25361.20750677  .00001652  00000+0  19743-3 0  9990",
        "tle_line2": "2 40716  97.6737 229.3267 0004505 267.4978  92.5722 14.85469743564370"
      },
      "geometry": {
        "type": "Point",
        "coordinates": [
          159.1946466720412,
          81.84889626968418
        ]
      }
    },
    {
      "type": "Feature",
      "properties": {
        "norad_id": 40717,
        "name": "DMC3-FM3",
        "group": "dmc",
        "lat": -28.79473458985279,
        "lon": -124.63201902731397,
        "alt_km": 616.8277404065975,
        "timestamp": "2025-12-27T08:36:18.032738+00:00",
        "meta_object_name": "DMC3-FM3",
        "meta_object_id": "2015-032C",
        "meta_epoch": "2025-12-27T05:30:08.254944",
        "meta_mean_motion": 14.85451351,
        "meta_eccentricity": 0.0003881,
        "meta_inclination": 97.6792,
        "meta_ra_of_asc_node": 230.9903,
        "meta_arg_of_pericenter": 268.9038,
        "meta_mean_anomaly": 91.1733,
        "meta_ephemeris_type": 0,
        "meta_classification_type": "U",
        "meta_norad_cat_id": 40717,
        "meta_element_set_no": 999,
        "meta_rev_at_epoch": 56438,
        "meta_bstar": 6.7931e-05,
        "meta_mean_motion_dot": 5.34e-06,
        "meta_mean_motion_ddot": 0,
        "tle_line1": "1 40717U 15032C   25361.22926221  .00000534  00000+0  67931-4 0  9994",
        "tle_line2": "2 40717  97.6792 230.9903 0003881 268.9038  91.1733 14.85451351564380"
      },
      "geometry": {
        "type": "Point",
        "coordinates": [
          -124.63201902731397,
          -28.79473458985279
        ]
      }
    }
  ]
}